CUTE-1 (CO-55)          
1 27844U 03031E   25238.53164388  .00000304  00000+0  15129-3 0  9997
2 27844  98.6783 245.8072 0008913 327.9002  32.1633 14.24048026149733
CUBESAT XI-IV (CO-57)   
1 27848U 03031J   25238.51666090  .00000250  00000+0  12932-3 0  9995
2 27848  98.6811 245.7387 0009170 346.3085  13.7843 14.23375423149459
CUBESAT XI-V            
1 28895U 05043F   25238.46451171  .00001545  00000+0  25849-3 0  9998
2 28895  98.2605  23.8433 0015468  62.8996 297.3786 14.71245459 58390
CUTE-1.7+APD II (CO-65) 
1 32785U 08021C   25238.54038078  .00006559  00000+0  46478-3 0  9997
2 32785  97.7923 210.3450 0008324 315.9423  44.1139 15.05120427940803
CANX-2                  
1 32790U 08021H   25238.44912050  .00004163  00000+0  31995-3 0  9990
2 32790  97.8291 208.8410 0008907 328.2965  31.7722 15.02269488940506
SEEDS II (CO-66)        
1 32791U 08021J   25238.47557141  .00012866  00000+0  59330-3 0  9992
2 32791  97.7340 220.3707 0001380 221.9080 138.2049 15.20394810942329
SWISSCUBE               
1 35932U 09051B   25238.47793689  .00001014  00000+0  21437-3 0  9995
2 35932  98.4196 136.1426 0008142  55.2849 304.9117 14.61491611846098
BEESAT-1                
1 35933U 09051C   25238.62111950  .00000885  00000+0  19089-3 0  9993
2 35933  98.4126 136.5023 0006665  67.2224 292.9680 14.60882845846168
ITUPSAT1                
1 35935U 09051E   25238.56541580  .00000817  00000+0  18173-3 0  9992
2 35935  98.4219 135.9211 0008928  74.2989 285.9195 14.59670220845741
TISAT 1                 
1 36799U 10035E   25238.20712259  .00012248  00000+0  60074-3 0  9997
2 36799  98.0526 157.1658 0003567 152.9642 207.1776 15.18271943822743
AEROCUBE 4.5A           
1 38767U 12048K   25238.57932877  .00033319  00000+0  79684-3 0  9999
2 38767  64.6478 324.7560 0093918 257.0994 101.9637 15.36780830326796
STRAND-1                
1 39090U 13009E   25238.46018334  .00000268  00000+0  10520-3 0  9999
2 39090  98.3853  61.1243 0009437  38.4185 321.7673 14.36868384654733
BRITE-AUSTRIA           
1 39091U 13009F   25238.49368117  .00000175  00000+0  74301-4 0  9995
2 39091  98.3913  60.4000 0011062  45.0829 315.1254 14.36344225654746
NEE-01 PEGASO           
1 39151U 13018B   25238.09568415  .00002994  00000+0  30668-3 0  9999
2 39151  98.0831   8.7407 0014163  58.7411 301.5192 14.91221706666683
POPACS 1                
1 39268U 13055D   25238.06342827  .00086135  86730-6  61639-3 0  9995
2 39268  80.9689 350.6311 0203354  74.4708 287.8887 15.50673555626594
POPACS 2                
1 39269U 13055E   25238.09516566  .00023275  00000+0  44263-3 0  9991
2 39269  80.9950 118.8888 0469138  53.4856 310.8609 14.77985377619412
POPACS 3                
1 39270U 13055F   25238.19265533  .00005325  00000+0  13464-3 0  9994
2 39270  81.0065 187.4266 0577275 244.1927 109.8647 14.49350440595726
ZACUBE-1 (TSHEPISOSAT)  
1 39417U 13066B   25238.32531147  .00003342  00000+0  28802-3 0  9990
2 39417  97.7864 194.9839 0044236 150.1834 210.1922 14.97255847636544
WNISAT-1                
1 39423U 13066H   25238.46292078  .00000892  00000+0  17187-3 0  9990
2 39423  97.6854  44.3562 0166443  80.2810 281.7144 14.57259190623796
TRITON-1                
1 39427U 13066M   25238.59946899  .00002548  00000+0  32316-3 0  9996
2 39427  97.8298 150.3941 0095406 112.7567 248.3761 14.79398947630490
GOMX-1                  
1 39430U 13066Q   25238.54246828  .00001410  00000+0  22498-3 0  9997
2 39430  97.6753  92.4050 0130711 303.2874  55.5866 14.67904915626665
CUBEBUG-2 (LO-74)       
1 39440U 13066AA  25238.56816433  .00003472  00000+0  35001-3 0  9999
2 39440  97.8527 182.6281 0059621 283.1069  76.3499 14.90478691633054
NEE-02 KRYSAOR          
1 39441U 13066AB  25238.30142837  .00002773  00000+0  32112-3 0  9995
2 39441  97.8570 175.5289 0067364 317.0744  42.5224 14.84700160632414
FUNCUBE-1 (AO-73)       
1 39444U 13066AE  25238.45178717  .00007601  00000+0  55527-3 0  9990
2 39444  97.7874 200.7336 0042556 122.4771 238.0579 15.03207177635286
UWE-3                   
1 39446U 13066AG  25238.60595736  .00003982  00000+0  37450-3 0  9996
2 39446  97.8286 189.1457 0051393 218.4894 141.2657 14.93474601633557
BRITE-CA1 (TORONTO)     
1 40020U 14033L   25238.62527514  .00001391  00000+0  21959-3 0  9991
2 40020  97.9359   8.8627 0080774 139.2093 221.5200 14.71775314598873
DUCHIFAT-1              
1 40021U 14033M   25238.48403981  .00026029  00000+0  85349-3 0  9995
2 40021  98.0933 259.7592 0009280  59.5728 300.6427 15.31573785610234
NANOSATC-BR1            
1 40024U 14033Q   25238.52672733  .00013823  00000+0  64388-3 0  9994
2 40024  98.0934 241.9733 0006770 118.9034 241.2879 15.20021491609047
QB50P1                  
1 40025U 14033R   25238.42027945  .00007563  00000+0  44954-3 0  9994
2 40025  98.0894 225.4243 0011578 142.4626 217.7414 15.11540824608393
QB50P2                  
1 40032U 14033Y   25238.37046677  .00006259  00000+0  39715-3 0  9999
2 40032  98.0501 213.5759 0010561  97.3941 262.8487 15.09242052608104
PERSEUS-M2              
1 40037U 14033AD  25238.60444373  .00001590  00000+0  15466-3 0  9995
2 40037  97.9579 179.1422 0011813 188.5450 171.5570 14.93982739606770
PERSEUS-M1              
1 40039U 14033AF  25238.25615215  .00001659  00000+0  16112-3 0  9998
2 40039  97.9301 173.4797 0011573 188.0359 172.0677 14.93983987606571
POLYITAN-1              
1 40042U 14033AJ  25238.53543906  .00016456  00000+0  75522-3 0  9991
2 40042  98.1075 234.5412 0011904  94.4335 265.8259 15.20447976608620
TIGRISAT                
1 40043U 14033AK  25238.39162025  .00001714  00000+0  21167-3 0  9992
2 40043  97.7454  31.2244 0050256 322.4471  37.3237 14.83255785601893
AEROCUBE 6A             
1 40045U 14033AM  25238.42603820  .00005284  00000+0  50491-3 0  9999
2 40045  97.7007  44.9625 0041106 281.0877  78.5722 14.93045754602551
AEROCUBE 6B             
1 40046U 14033AN  25238.49241356  .00005526  00000+0  51241-3 0  9992
2 40046  97.6985  44.2769 0039684 273.5080  86.1602 14.94256310602665
CANX-4                  
1 40055U 14034C   25238.55432498  .00000917  00000+0  12757-3 0  9997
2 40055  98.3530  97.4664 0011857 234.3964 125.6142 14.80368322600928
CANX-5                  
1 40056U 14034D   25238.55599607  .00000921  00000+0  12814-3 0  9993
2 40056  98.3534  97.4946 0011855 234.6188 125.3915 14.80382471591739
UKUBE-1                 
1 40074U 14037F   25238.37106784  .00008164  00000+0  55635-3 0  9991
2 40074  98.4009 207.5644 0003972  87.7904 272.3776 15.06554221604051
BRITE-PL2 (HEWELIUSZ)   
1 40119U 14049B   25238.58072496  .00002172  00000+0  21500-3 0  9996
2 40119  97.8942 344.0136 0014633  11.8089 348.3470 14.92856878597469
AEROCUBE 5C             
1 40965U 15058B   25238.32938563  .00002898  00000+0  26184-3 0  9992
2 40965  64.7669  98.3799 0153802 174.9546 185.3161 14.88952700321717
AEROCUBE 7              
1 40966U 15058C   25237.95356617  .00004514  00000+0  37285-3 0  9996
2 40966  64.7628  87.4738 0145237 175.0281 185.2317 14.92353168321840
FOX-1A (AO-85)          
1 40967U 15058D   25238.07717223  .00002830  00000+0  26205-3 0  9994
2 40967  64.7751 114.5648 0150084 169.6225 190.8046 14.88461590 69601
SINOD-D 1               
1 40968U 15058E   25238.02466307  .00004324  00000+0  36286-3 0  9994
2 40968  64.7751 101.0886 0139417 168.4762 191.9601 14.92423243 72552
SNAP-3 ALICE            
1 40970U 15058G   25238.58275883  .00037465  00000+0  14406-2 0  9996
2 40970  64.7664  10.4911 0069660 170.0933 190.1589 15.23945640 71540
LMRST-SAT               
1 40971U 15058H   25238.36614880  .00002599  00000+0  24225-3 0  9998
2 40971  64.7752 109.5006 0152541 171.0751 189.3130 14.88175342 69648
SNAP-3 EDDIE            
1 40972U 15058J   25238.60803172  .00037524  00000+0  14047-2 0  9996
2 40972  64.7591   2.7156 0074219 172.2379 187.9918 15.24514512 73666
PROPCUBE 3              
1 40973U 15058K   25238.00446278  .00003794  00000+0  32400-3 0  9997
2 40973  64.7681  92.9503 0146909 173.2630 187.0506 14.91233067 70736
BISONSAT                
1 40974U 15058L   25238.59990123  .00017032  00000+0  99179-3 0  9991
2 40974  64.7634  40.1274 0107712 171.5510 188.7459 15.07314373 71073
SNAP-3 JIMI             
1 40975U 15058M   25238.61688129  .00008054  00000+0  58906-3 0  9992
2 40975  64.7659  68.8022 0130862 172.1894 188.1304 14.97559332 70035
PROPCUBE 1 (FLORA)      
1 40976U 15058N   25238.39341343  .00002110  00000+0  20678-3 0  9994
2 40976  64.7737 127.4604 0152165 172.9584 187.3717 14.86874142 72392
SINOD-D 3               
1 40977U 15058P   25238.36875143  .00003454  00000+0  30451-3 0  9994
2 40977  64.7722 114.4417 0141628 172.2405 188.0948 14.90751912 70758
HORYU-4                 
1 41340U 16012D   25238.59375521  .00028067  00000+0  67416-3 0  9998
2 41340  30.9971 326.1088 0007158 149.6192 210.4870 15.40086915524815
RAVAN                   
1 41849U 16067B   25238.53963196  .00017293  00000+0  55553-3 0  9995
2 41849  98.0357  94.0719 0007848 332.2042  27.8777 15.32336569482277
CELTEE 1                
1 41850U 16067C   25238.50368887  .00005406  00000+0  29075-3 0  9993
2 41850  98.1023  80.1756 0001945 124.1195 236.0220 15.15333932481184
OPTICUBE 04             
1 41851U 16067D   25238.48374713  .00003039  00000+0  20362-3 0  9996
2 41851  98.0928  70.2932 0017032  36.8868 323.3526 15.07615961480739
AEROCUBE 8D             
1 41852U 16067E   25238.50228011  .00006966  00000+0  34075-3 0  9997
2 41852  98.1049  81.7747 0005219  77.5461 282.6355 15.18552096481257
AEROCUBE 8C             
1 41853U 16067F   25238.50096598  .00007186  00000+0  34988-3 0  9999
2 41853  98.0903  79.4293 0006007  10.8779 349.2582 15.18702086481241
PROMETHEUS 2-1          
1 41854U 16067G   25238.56558624  .00067192  00000+0  96515-3 0  9996
2 41854  98.0650 101.4389 0003701 344.3202  15.7935 15.55878043482502
